0 SL-12 R/B(2)
1 27404U 02016B   13280.11467203 -.00000005  00000-0  00000+0 0  7100
2 27404 025.1468 071.1929 6217769 194.6904 135.9914 02.06290048 86822
0 SL-12 R/B(2)
1 27404U 02016B   13282.55675457 -.00000148  00000-0  00000+0 0  7111
2 27404 025.1529 070.7694 6217610 195.4212 149.5725 02.06291637 86871
0 SL-12 R/B(2)
1 27404U 02016B   13283.01493513  .00000000  00000-0  10000-3 0  7126
2 27404 025.1523 070.7231 6215830 195.5222 129.8557 02.06290228 86875
0 SL-12 R/B(2)
1 27404U 02016B   13285.73251582 -.00000222  00000-0  00000+0 0  7127
2 27404 025.1608 070.2186 6217415 196.3713 348.0274 02.06292026 86934
0 SL-12 R/B(2)
1 27404U 02016B   13287.73634138 -.00000184  00000-0  00000+0 0  7139
2 27404 025.1659 069.8709 6217266 196.9707 036.1530 02.06291050 86978
0 SL-12 R/B(2)
1 27404U 02016B   13290.27759640 -.00000420  00000-0  10000-3 0  7147
2 27404 025.1338 069.4467 6215849 197.7130 123.4161 02.06287602 87028
0 SL-12 R/B(2)
1 27404U 02016B   13290.35185118 -.00000066  00000-0  00000+0 0  7140
2 27404 025.1720 069.4163 6217099 197.7529 178.5334 02.06289334 87035
0 SL-12 R/B(2)
1 27404U 02016B   13292.92385140  .00000049  00000-0  00000+0 0  7153
2 27404 025.1781 068.9698 6217016 198.5219 288.5898 02.06288478 87083
